{"type": "FeatureCollection", "features": [ {"type": "Feature", "properties": {"norad_id": 42741, "name": "EUTELSAT 172B", "group": "eutelsat", "lat": -0.0003552780214614311, "lon": 170.35187886474623, "alt_km": 35785.95997787114, "timestamp": "2025-12-06T18:50:09.842095+00:00", "meta": {"OBJECT_NAME": "EUTELSAT 172B", "OBJECT_ID": "2017-029B", "EPOCH": "2025-12-05T21:21:42.715872", "MEAN_MOTION": 1.00271098, "ECCENTRICITY": 1.563e-05, "INCLINATION": 0.0102, "RA_OF_ASC_NODE": 82.7669, "ARG_OF_PERICENTER": 152.681, "MEAN_ANOMALY": 331.9231, "EPHEMERIS_TYPE": 0, "CLASSIFICATION_TYPE": "U", "NORAD_CAT_ID": 42741, "ELEMENT_SET_NO": 999, "REV_AT_EPOCH": 3179, "BSTAR": 0, "MEAN_MOTION_DOT": 4e-08, "MEAN_MOTION_DDOT": 0}, "tle": {"line1": "1 42741U 17029B   25339.89007773  .00000004  00000+0  00000+0 0  9992", "line2": "2 42741   0.0102  82.7669 0000156 152.6810 331.9231  1.00271098 31796"}}, "geometry": {"type": "Point", "coordinates": [170.35187886474623, -0.0003552780214614311]}}, {"type": "Feature", "properties": {"norad_id": 44334, "name": "EUTELSAT 7C", "group": "eutelsat", "lat": 0.012689354158954003, "lon": 5.359884913667764, "alt_km": 35795.002842716065, "timestamp": "2025-12-06T18:50:09.842107+00:00", "meta": {"OBJECT_NAME": "EUTELSAT 7C", "OBJECT_ID": "2019-034B", "EPOCH": "2025-12-06T03:25:30.364320", "MEAN_MOTION": 1.00270039, "ECCENTRICITY": 0.00034504, "INCLINATION": 0.0751, "RA_OF_ASC_NODE": 179.1623, "ARG_OF_PERICENTER": 60.529, "MEAN_ANOMALY": 253.8532, "EPHEMERIS_TYPE": 0, "CLASSIFICATION_TYPE": "U", "NORAD_CAT_ID": 44334, "ELEMENT_SET_NO": 999, "REV_AT_EPOCH": 490, "BSTAR": 0, "MEAN_MOTION_DOT": 5.6e-07, "MEAN_MOTION_DDOT": 0}, "tle": {"line1": "1 44334U 19034B   25340.14271255  .00000056  00000+0  00000+0 0  9995", "line2": "2 44334   0.0751 179.1623 0003450  60.5290 253.8532  1.00270039  4909"}}, "geometry": {"type": "Point", "coordinates": [5.359884913667764, 0.012689354158954003]}}, {"type": "Feature", "properties": {"norad_id": 44624, "name": "EUTELSAT 5 WEST B", "group": "eutelsat", "lat": 0.029696958006132295, "lon": -6.607407483047509, "alt_km": 35788.442582040145, "timestamp": "2025-12-06T18:50:09.842118+00:00", "meta": {"OBJECT_NAME": "EUTELSAT 5 WEST B", "OBJECT_ID": "2019-067A", "EPOCH": "2025-12-06T06:08:38.706720", "MEAN_MOTION": 1.00270399, "ECCENTRICITY": 0.00035924, "INCLINATION": 0.0675, "RA_OF_ASC_NODE": 334.5207, "ARG_OF_PERICENTER": 281.3365, "MEAN_ANOMALY": 266.6069, "EPHEMERIS_TYPE": 0, "CLASSIFICATION_TYPE": "U", "NORAD_CAT_ID": 44624, "ELEMENT_SET_NO": 999, "REV_AT_EPOCH": 2250, "BSTAR": 0, "MEAN_MOTION_DOT": -3.4e-07, "MEAN_MOTION_DDOT": 0}, "tle": {"line1": "1 44624U 19067A   25340.25600355 -.00000034  00000+0  00000+0 0  9999", "line2": "2 44624   0.0675 334.5207 0003592 281.3365 266.6069  1.00270399 22506"}}, "geometry": {"type": "Point", "coordinates": [-6.607407483047509, 0.029696958006132295]}}, {"type": "Feature", "properties": {"norad_id": 45027, "name": "EUTELSAT KONNECT", "group": "eutelsat", "lat": -0.054790796635451916, "lon": 5.545442435324203, "alt_km": 35785.700505948356, "timestamp": "2025-12-06T18:50:09.842130+00:00", "meta": {"OBJECT_NAME": "EUTELSAT KONNECT", "OBJECT_ID": "2020-005B", "EPOCH": "2025-12-05T22:17:29.870880", "MEAN_MOTION": 1.00267987, "ECCENTRICITY": 0.00018557, "INCLINATION": 0.0712, "RA_OF_ASC_NODE": 98.3329, "ARG_OF_PERICENTER": 187.648, "MEAN_ANOMALY": 130.555, "EPHEMERIS_TYPE": 0, "CLASSIFICATION_TYPE": "U", "NORAD_CAT_ID": 45027, "ELEMENT_SET_NO": 999, "REV_AT_EPOCH": 2238, "BSTAR": 0, "MEAN_MOTION_DOT": 5.8e-07, "MEAN_MOTION_DDOT": 0}, "tle": {"line1": "1 45027U 20005B   25339.92881795  .00000058  00000+0  00000+0 0  9997", "line2": "2 45027   0.0712  98.3329 0001855 187.6480 130.5550  1.00267987 22381"}}, "geometry": {"type": "Point", "coordinates": [5.545442435324203, -0.054790796635451916]}}, {"type": "Feature", "properties": {"norad_id": 49056, "name": "EUTELSAT QUANTUM", "group": "eutelsat", "lat": 0.019870253908955953, "lon": 46.07759771133544, "alt_km": 35798.19430519112, "timestamp": "2025-12-06T18:50:09.842141+00:00", "meta": {"OBJECT_NAME": "EUTELSAT QUANTUM", "OBJECT_ID": "2021-069B", "EPOCH": "2025-12-06T05:46:38.731584", "MEAN_MOTION": 1.00270382, "ECCENTRICITY": 0.00037051, "INCLINATION": 0.0261, "RA_OF_ASC_NODE": 39.9142, "ARG_OF_PERICENTER": 227.5936, "MEAN_ANOMALY": 302.1388, "EPHEMERIS_TYPE": 0, "CLASSIFICATION_TYPE": "U", "NORAD_CAT_ID": 49056, "ELEMENT_SET_NO": 999, "REV_AT_EPOCH": 1599, "BSTAR": 0, "MEAN_MOTION_DOT": 1.34e-06, "MEAN_MOTION_DDOT": 0}, "tle": {"line1": "1 49056U 21069B   25340.24072606  .00000134  00000+0  00000+0 0  9999", "line2": "2 49056   0.0261  39.9142 0003705 227.5936 302.1388  1.00270382 15994"}}, "geometry": {"type": "Point", "coordinates": [46.07759771133544, 0.019870253908955953]}}, {"type": "Feature", "properties": {"norad_id": 53765, "name": "EUTELSAT KONNECT VHTS", "group": "eutelsat", "lat": -0.04336540685898267, "lon": 1.073161973180128, "alt_km": 35793.38925341239, "timestamp": "2025-12-06T18:50:09.842152+00:00", "meta": {"OBJECT_NAME": "EUTELSAT KONNECT VHTS", "OBJECT_ID": "2022-110A", "EPOCH": "2025-12-06T06:08:38.706720", "MEAN_MOTION": 1.00269437, "ECCENTRICITY": 0.00027173, "INCLINATION": 0.0615, "RA_OF_ASC_NODE": 107.7029, "ARG_OF_PERICENTER": 127.6893, "MEAN_ANOMALY": 294.7694, "EPHEMERIS_TYPE": 0, "CLASSIFICATION_TYPE": "U", "NORAD_CAT_ID": 53765, "ELEMENT_SET_NO": 999, "REV_AT_EPOCH": 489, "BSTAR": 0, "MEAN_MOTION_DOT": 2.5e-07, "MEAN_MOTION_DDOT": 0}, "tle": {"line1": "1 53765U 22110A   25340.25600355  .00000025  00000+0  00000+0 0  9997", "line2": "2 53765   0.0615 107.7029 0002717 127.6893 294.7694  1.00269437  4893"}}, "geometry": {"type": "Point", "coordinates": [1.073161973180128, -0.04336540685898267]}}, {"type": "Feature", "properties": {"norad_id": 54048, "name": "EUTELSAT HOTBIRD 13F", "group": "eutelsat", "lat": 0.0589572734162035, "lon": 11.359117626148109, "alt_km": 35776.843552166276, "timestamp": "2025-12-06T18:50:09.842165+00:00", "meta": {"OBJECT_NAME": "EUTELSAT HOTBIRD 13F", "OBJECT_ID": "2022-134A", "EPOCH": "2025-12-06T01:44:32.536320", "MEAN_MOTION": 1.00271355, "ECCENTRICITY": 0.00023431, "INCLINATION": 0.0469, "RA_OF_ASC_NODE": 294.3782, "ARG_OF_PERICENTER": 57.7205, "MEAN_ANOMALY": 122.1557, "EPHEMERIS_TYPE": 0, "CLASSIFICATION_TYPE": "U", "NORAD_CAT_ID": 54048, "ELEMENT_SET_NO": 999, "REV_AT_EPOCH": 1144, "BSTAR": 0, "MEAN_MOTION_DOT": 9.6e-07, "MEAN_MOTION_DDOT": 0}, "tle": {"line1": "1 54048U 22134A   25340.07259880  .00000096  00000+0  00000+0 0  9999", "line2": "2 54048   0.0469 294.3782 0002343  57.7205 122.1557  1.00271355 11442"}}, "geometry": {"type": "Point", "coordinates": [11.359117626148109, 0.0589572734162035]}}, {"type": "Feature", "properties": {"norad_id": 54225, "name": "EUTELSAT HOTBIRD 13G", "group": "eutelsat", "lat": 0.0384765347333067, "lon": 11.33765462149937, "alt_km": 35794.45416222261, "timestamp": "2025-12-06T18:50:09.842176+00:00", "meta": {"OBJECT_NAME": "EUTELSAT HOTBIRD 13G", "OBJECT_ID": "2022-146A", "EPOCH": "2025-12-05T15:28:18.292224", "MEAN_MOTION": 1.00270321, "ECCENTRICITY": 0.00019255, "INCLINATION": 0.0461, "RA_OF_ASC_NODE": 235.0424, "ARG_OF_PERICENTER": 313.1322, "MEAN_ANOMALY": 131.5912, "EPHEMERIS_TYPE": 0, "CLASSIFICATION_TYPE": "U", "NORAD_CAT_ID": 54225, "ELEMENT_SET_NO": 999, "REV_AT_EPOCH": 552, "BSTAR": 0, "MEAN_MOTION_DOT": 9.7e-07, "MEAN_MOTION_DDOT": 0}, "tle": {"line1": "1 54225U 22146A   25339.64465616  .00000097  00000+0  00000+0 0  9997", "line2": "2 54225   0.0461 235.0424 0001925 313.1322 131.5912  1.00270321  5523"}}, "geometry": {"type": "Point", "coordinates": [11.33765462149937, 0.0384765347333067]}}, {"type": "Feature", "properties": {"norad_id": 54259, "name": "EUTELSAT 10B", "group": "eutelsat", "lat": -0.04185352140487848, "lon": 8.333935206143165, "alt_km": 35791.82382986354, "timestamp": "2025-12-06T18:50:09.842187+00:00", "meta": {"OBJECT_NAME": "EUTELSAT 10B", "OBJECT_ID": "2022-157A", "EPOCH": "2025-12-06T06:51:51.163776", "MEAN_MOTION": 1.00267264, "ECCENTRICITY": 0.00010794, "INCLINATION": 0.0619, "RA_OF_ASC_NODE": 103.5908, "ARG_OF_PERICENTER": 79.1281, "MEAN_ANOMALY": 5.5652, "EPHEMERIS_TYPE": 0, "CLASSIFICATION_TYPE": "U", "NORAD_CAT_ID": 54259, "ELEMENT_SET_NO": 999, "REV_AT_EPOCH": 1109, "BSTAR": 0, "MEAN_MOTION_DOT": 7.6e-07, "MEAN_MOTION_DDOT": 0}, "tle": {"line1": "1 54259U 22157A   25340.28600884  .00000076  00000+0  00000+0 0  9993", "line2": "2 54259   0.0619 103.5908 0001079  79.1281   5.5652  1.00267264 11096"}}, "geometry": {"type": "Point", "coordinates": [8.333935206143165, -0.04185352140487848]}}, {"type": "Feature", "properties": {"norad_id": 59346, "name": "EUTELSAT 36D", "group": "eutelsat", "lat": 0.03505364312641668, "lon": 34.224822807095016, "alt_km": 35784.82008216735, "timestamp": "2025-12-06T18:50:09.842199+00:00", "meta": {"OBJECT_NAME": "EUTELSAT 36D", "OBJECT_ID": "2024-059A", "EPOCH": "2025-12-05T21:12:21.661920", "MEAN_MOTION": 1.00272563, "ECCENTRICITY": 7.535e-05, "INCLINATION": 0.0214, "RA_OF_ASC_NODE": 349.7189, "ARG_OF_PERICENTER": 331.5769, "MEAN_ANOMALY": 107.5891, "EPHEMERIS_TYPE": 0, "CLASSIFICATION_TYPE": "U", "NORAD_CAT_ID": 59346, "ELEMENT_SET_NO": 999, "REV_AT_EPOCH": 620, "BSTAR": 0, "MEAN_MOTION_DOT": 0, "MEAN_MOTION_DDOT": 0}, "tle": {"line1": "1 59346U 24059A   25339.88358405  .00000000  00000+0  00000+0 0  9998", "line2": "2 59346   0.0214 349.7189 0000753 331.5769 107.5891  1.00272563  6201"}}, "geometry": {"type": "Point", "coordinates": [34.224822807095016, 0.03505364312641668]}}]}